[{"OBJECT_NAME":"SHIYAN-6 03 (SY-6 03)","OBJECT_ID":"2021-028A","EPOCH":"2026-03-09T22:49:05.080800","MEAN_MOTION":13.77596335,"ECCENTRICITY":0.0046038,"INCLINATION":99.5345,"RA_OF_ASC_NODE":82.5401,"ARG_OF_PERICENTER":347.8227,"MEAN_ANOMALY":12.1807,"EPHEMERIS_TYPE":0,"CLASSIFICATION_TYPE":"U","NORAD_CAT_ID":48157,"ELEMENT_SET_NO":999,"REV_AT_EPOCH":24584,"BSTAR":1.7068221e-5,"MEAN_MOTION_DOT":-2.9e-7,"MEAN_MOTION_DDOT":0},{"OBJECT_NAME":"COSMOS 2100","OBJECT_ID":"1990-083A","EPOCH":"2026-03-09T23:13:21.836640","MEAN_MOTION":13.74557474,"ECCENTRICITY":0.00365868,"INCLINATION":82.936,"RA_OF_ASC_NODE":241.2829,"ARG_OF_PERICENTER":193.0776,"MEAN_ANOMALY":281.5162,"EPHEMERIS_TYPE":0,"CLASSIFICATION_TYPE":"U","NORAD_CAT_ID":20804,"ELEMENT_SET_NO":999,"REV_AT_EPOCH":77960,"BSTAR":5.3336608e-5,"MEAN_MOTION_DOT":6.6e-7,"MEAN_MOTION_DDOT":0}]
